{
  "type": "FeatureCollection",
  "features": [
    {
      "type": "Feature",
      "properties": {
        "norad_id": 52912,
        "name": "GAOFEN-12 03",
        "group": "resource",
        "lat": 61.09630829697801,
        "lon": -133.13681170256933,
        "alt_km": 623.1740336779276,
        "timestamp": "2025-12-20T03:42:47.049986+00:00",
        "meta_object_name": "GAOFEN-12 03",
        "meta_object_id": "2022-069A",
        "meta_epoch": "2025-12-19T20:56:29.241024",
        "meta_mean_motion": 14.79626429,
        "meta_eccentricity": 0.0002012,
        "meta_inclination": 97.849,
        "meta_ra_of_asc_node": 241.0564,
        "meta_arg_of_pericenter": 54.9493,
        "meta_mean_anomaly": 305.1908,
        "meta_ephemeris_type": 0,
        "meta_classification_type": "U",
        "meta_norad_cat_id": 52912,
        "meta_element_set_no": 999,
        "meta_rev_at_epoch": 18809,
        "meta_bstar": 0.00015983,
        "meta_mean_motion_dot": 1.148e-05,
        "meta_mean_motion_ddot": 0,
        "tle_line1": "1 52912U 22069A   25353.87256066  .00001148  00000+0  15983-3 0  9998",
        "tle_line2": "2 52912  97.8490 241.0564 0002012  54.9493 305.1908 14.79626429188091"
      },
      "geometry": {
        "type": "Point",
        "coordinates": [
          -133.13681170256933,
          61.09630829697801
        ]
      }
    },
    {
      "type": "Feature",
      "properties": {
        "norad_id": 54754,
        "name": "SWOT",
        "group": "resource",
        "lat": 75.76865017080014,
        "lon": -22.94711617266969,
        "alt_km": 885.609113916862,
        "timestamp": "2025-12-20T03:42:47.049996+00:00",
        "meta_object_name": "SWOT",
        "meta_object_id": "2022-173A",
        "meta_epoch": "2025-12-19T18:44:37.975776",
        "meta_mean_motion": 14.00167878,
        "meta_eccentricity": 3.61e-05,
        "meta_inclination": 77.6109,
        "meta_ra_of_asc_node": 277.4849,
        "meta_arg_of_pericenter": 92.9513,
        "meta_mean_anomaly": 267.168,
        "meta_ephemeris_type": 0,
        "meta_classification_type": "U",
        "meta_norad_cat_id": 54754,
        "meta_element_set_no": 999,
        "meta_rev_at_epoch": 15404,
        "meta_bstar": 2.1055e-05,
        "meta_mean_motion_dot": 2.9e-07,
        "meta_mean_motion_ddot": 0,
        "tle_line1": "1 54754U 22173A   25353.78099509  .00000029  00000+0  21055-4 0  9992",
        "tle_line2": "2 54754  77.6109 277.4849 0000361  92.9513 267.1680 14.00167878154043"
      },
      "geometry": {
        "type": "Point",
        "coordinates": [
          -22.94711617266969,
          75.76865017080014
        ]
      }
    },
    {
      "type": "Feature",
      "properties": {
        "norad_id": 57654,
        "name": "GAOFEN-12 04",
        "group": "resource",
        "lat": -53.58360187872278,
        "lon": 78.93225135737586,
        "alt_km": 638.0259371877601,
        "timestamp": "2025-12-20T03:42:47.050007+00:00",
        "meta_object_name": "GAOFEN-12 04",
        "meta_object_id": "2023-123A",
        "meta_epoch": "2025-12-19T20:09:57.451392",
        "meta_mean_motion": 14.79718832,
        "meta_eccentricity": 0.0001235,
        "meta_inclination": 97.9127,
        "meta_ra_of_asc_node": 269.4897,
        "meta_arg_of_pericenter": 77.059,
        "meta_mean_anomaly": 283.0759,
        "meta_ephemeris_type": 0,
        "meta_classification_type": "U",
        "meta_norad_cat_id": 57654,
        "meta_element_set_no": 999,
        "meta_rev_at_epoch": 12610,
        "meta_bstar": 0.00012999,
        "meta_mean_motion_dot": 9.25e-06,
        "meta_mean_motion_ddot": 0,
        "tle_line1": "1 57654U 23123A   25353.84024828  .00000925  00000+0  12999-3 0  9990",
        "tle_line2": "2 57654  97.9127 269.4897 0001235  77.0590 283.0759 14.79718832126102"
      },
      "geometry": {
        "type": "Point",
        "coordinates": [
          78.93225135737586,
          -53.58360187872278
        ]
      }
    },
    {
      "type": "Feature",
      "properties": {
        "norad_id": 59065,
        "name": "PARS 1",
        "group": "resource",
        "lat": 72.43265352314057,
        "lon": 169.7084527228767,
        "alt_km": 431.2257116257915,
        "timestamp": "2025-12-20T03:42:47.050017+00:00",
        "meta_object_name": "PARS 1",
        "meta_object_id": "2024-039Q",
        "meta_epoch": "2025-12-19T17:54:22.416192",
        "meta_mean_motion": 15.41124704,
        "meta_eccentricity": 0.0012121,
        "meta_inclination": 97.4638,
        "meta_ra_of_asc_node": 324.8279,
        "meta_arg_of_pericenter": 51.104,
        "meta_mean_anomaly": 309.1286,
        "meta_ephemeris_type": 0,
        "meta_classification_type": "U",
        "meta_norad_cat_id": 59065,
        "meta_element_set_no": 999,
        "meta_rev_at_epoch": 10096,
        "meta_bstar": 0.00021357,
        "meta_mean_motion_dot": 8.777e-05,
        "meta_mean_motion_ddot": 0,
        "tle_line1": "1 59065U 24039Q   25353.74609278  .00008777  00000+0  21357-3 0  9993",
        "tle_line2": "2 59065  97.4638 324.8279 0012121  51.1040 309.1286 15.41124704100961"
      },
      "geometry": {
        "type": "Point",
        "coordinates": [
          169.7084527228767,
          72.43265352314057
        ]
      }
    },
    {
      "type": "Feature",
      "properties": {
        "norad_id": 59371,
        "name": "RESURS-P 4",
        "group": "resource",
        "lat": 9.146314987205367,
        "lon": -60.84267000642321,
        "alt_km": 470.79464320803254,
        "timestamp": "2025-12-20T03:42:47.050027+00:00",
        "meta_object_name": "RESURS-P 4",
        "meta_object_id": "2024-061A",
        "meta_epoch": "2025-12-19T19:50:08.433600",
        "meta_mean_motion": 15.32137848,
        "meta_eccentricity": 0.0001051,
        "meta_inclination": 97.2555,
        "meta_ra_of_asc_node": 300.0111,
        "meta_arg_of_pericenter": 59.2139,
        "meta_mean_anomaly": 300.9207,
        "meta_ephemeris_type": 0,
        "meta_classification_type": "U",
        "meta_norad_cat_id": 59371,
        "meta_element_set_no": 999,
        "meta_rev_at_epoch": 9629,
        "meta_bstar": 9.5869e-05,
        "meta_mean_motion_dot": 2.899e-05,
        "meta_mean_motion_ddot": 0,
        "tle_line1": "1 59371U 24061A   25353.82648650  .00002899  00000+0  95869-4 0  9993",
        "tle_line2": "2 59371  97.2555 300.0111 0001051  59.2139 300.9207 15.32137848 96291"
      },
      "geometry": {
        "type": "Point",
        "coordinates": [
          -60.84267000642321,
          9.146314987205367
        ]
      }
    },
    {
      "type": "Feature",
      "properties": {
        "norad_id": 59625,
        "name": "LEGION 1",
        "group": "resource",
        "lat": 1.0986518040200668,
        "lon": -111.12465198763441,
        "alt_km": 519.8981413451338,
        "timestamp": "2025-12-20T03:42:47.050037+00:00",
        "meta_object_name": "LEGION 1",
        "meta_object_id": "2024-081A",
        "meta_epoch": "2025-12-19T19:00:32.948064",
        "meta_mean_motion": 15.16544655,
        "meta_eccentricity": 0.0003636,
        "meta_inclination": 97.521,
        "meta_ra_of_asc_node": 68.3706,
        "meta_arg_of_pericenter": 285.6477,
        "meta_mean_anomaly": 74.4355,
        "meta_ephemeris_type": 0,
        "meta_classification_type": "U",
        "meta_norad_cat_id": 59625,
        "meta_element_set_no": 999,
        "meta_rev_at_epoch": 9034,
        "meta_bstar": 0.00016425,
        "meta_mean_motion_dot": 3.136e-05,
        "meta_mean_motion_ddot": 0,
        "tle_line1": "1 59625U 24081A   25353.79204801  .00003136  00000+0  16425-3 0  9994",
        "tle_line2": "2 59625  97.5210  68.3706 0003636 285.6477  74.4355 15.16544655 90346"
      },
      "geometry": {
        "type": "Point",
        "coordinates": [
          -111.12465198763441,
          1.0986518040200668
        ]
      }
    },
    {
      "type": "Feature",
      "properties": {
        "norad_id": 59626,
        "name": "LEGION 2",
        "group": "resource",
        "lat": -1.147865281363239,
        "lon": 68.9697174127926,
        "alt_km": 519.9660171945561,
        "timestamp": "2025-12-20T03:42:47.050047+00:00",
        "meta_object_name": "LEGION 2",
        "meta_object_id": "2024-081B",
        "meta_epoch": "2025-12-19T18:13:01.011936",
        "meta_mean_motion": 15.16557595,
        "meta_eccentricity": 0.0005626,
        "meta_inclination": 97.5214,
        "meta_ra_of_asc_node": 68.4257,
        "meta_arg_of_pericenter": 263.0389,
        "meta_mean_anomaly": 97.0204,
        "meta_ephemeris_type": 0,
        "meta_classification_type": "U",
        "meta_norad_cat_id": 59626,
        "meta_element_set_no": 999,
        "meta_rev_at_epoch": 9034,
        "meta_bstar": 0.00020294,
        "meta_mean_motion_dot": 3.893e-05,
        "meta_mean_motion_ddot": 0,
        "tle_line1": "1 59626U 24081B   25353.75903949  .00003893  00000+0  20294-3 0  9999",
        "tle_line2": "2 59626  97.5214  68.4257 0005626 263.0389  97.0204 15.16557595 90347"
      },
      "geometry": {
        "type": "Point",
        "coordinates": [
          68.9697174127926,
          -1.147865281363239
        ]
      }
    }
  ]
}